      2.10          N: GNSS NAV DATA                        RINEX VERSION / TYPE
fic2rin                                 06/02/2018 00:06:53 PGM / RUN BY / DATE
                                                            END OF HEADER
17 18  6  1  4  0  0.0-9.258044883609e-05 3.637978807092e-12 0.000000000000e+00
    1.000000000000e+01-9.050000000000e+01 4.154458764169e-09 8.793004713312e-01
   -4.820525646210e-06 1.235020591412e-02 3.239139914513e-06 5.153566757202e+03
    4.464000000000e+05-2.142041921616e-07 2.531274866970e+00-3.725290298462e-09
    9.828144919057e-01 3.270625000000e+02-1.778649556145e+00-8.293202588033e-09
   -1.857220217820e-10 1.000000000000e+00 2.003000000000e+03 0.000000000000e+00
    2.400000000000e+00 0.000000000000e+00-1.117587089539e-08 1.000000000000e+01
    4.392060000000e+05 4.000000000000e+00
19 18  6  1  4  0  0.0-4.319651052356e-04 2.955857780762e-12 0.000000000000e+00
    2.500000000000e+01-1.078125000000e+02 4.072669643038e-09-2.454204461432e+00
   -5.709007382393e-06 9.904156206176e-03 3.112480044365e-06 5.153720296860e+03
    4.464000000000e+05 1.154839992523e-07 2.578255477524e+00 2.607703208923e-08
    9.803716674094e-01 3.231250000000e+02 1.192459184403e+00-7.939973588913e-09
   -5.143071372424e-11 1.000000000000e+00 2.003000000000e+03 0.000000000000e+00
    2.400000000000e+00 0.000000000000e+00-1.536682248116e-08 2.500000000000e+01
    4.392060000000e+05 4.000000000000e+00
24 18  6  1  4  0  0.0-5.051074549556e-05-4.547473508865e-13 0.000000000000e+00
    8.700000000000e+01 6.084375000000e+01 4.616263714484e-09-9.225544004824e-01
    3.091990947723e-06 6.941915606149e-03 1.065246760845e-05 5.153651344299e+03
    4.464000000000e+05 1.788139343262e-07 3.442431036327e-01 2.421438694000e-08
    9.420511091014e-01 1.659687500000e+02 5.417373939712e-01-7.996047353182e-09
   -4.714482091388e-10 1.000000000000e+00 2.003000000000e+03 0.000000000000e+00
    2.400000000000e+00 0.000000000000e+00 2.793967723846e-09 8.700000000000e+01
    4.392060000000e+05 4.000000000000e+00
25 18  6  1  4  0  0.0-5.939574912190e-04-5.911715561524e-12 0.000000000000e+00
    7.800000000000e+01 1.010937500000e+02 4.054454598594e-09-2.938952366043e+00
    5.250796675682e-06 7.498963153921e-03 3.645196557045e-06 5.153643693924e+03
    4.464000000000e+05 9.313225746155e-09 1.436879312179e+00-6.332993507385e-08
    9.740052293302e-01 3.153437500000e+02 8.635171023020e-01-7.943545166255e-09
    2.967980771169e-10 1.000000000000e+00 2.003000000000e+03 0.000000000000e+00
    2.400000000000e+00 0.000000000000e+00 6.053596735001e-09 7.800000000000e+01
    4.392060000000e+05 4.000000000000e+00
23 18  6  1  4  0  0.0-2.164300531149e-04 4.547473508865e-13 0.000000000000e+00
    6.300000000000e+01-1.356250000000e+01 5.302006564141e-09-3.405249349504e-01
   -7.227063179016e-07 1.254698832054e-02 6.010755896568e-06 5.153783590317e+03
    4.464000000000e+05-5.401670932770e-08-6.748912715190e-01 1.583248376846e-07
    9.434520828405e-01 2.518125000000e+02-2.359424679143e+00-8.508211544019e-09
   -5.196645032553e-10 1.000000000000e+00 2.003000000000e+03 0.000000000000e+00
    2.400000000000e+00 0.000000000000e+00-2.002343535423e-08 6.300000000000e+01
    4.392060000000e+05 4.000000000000e+00
15 18  6  1  4  0  0.0-3.533703275025e-04 5.684341886081e-13 0.000000000000e+00
    7.800000000000e+01-1.437500000000e+01 5.746667943215e-09 1.099154999303e-01
   -6.202608346939e-07 1.027522236109e-02 5.573034286499e-06 5.153739421844e+03
    4.464000000000e+05 2.048909664154e-08-7.440645219597e-01 1.210719347000e-07
    9.281077282122e-01 2.506875000000e+02 6.792188670036e-01-8.682147360573e-09
   -4.721625246072e-10 1.000000000000e+00 2.003000000000e+03 0.000000000000e+00
    2.400000000000e+00 0.000000000000e+00-1.117587089539e-08 7.800000000000e+01
    4.392060000000e+05 4.000000000000e+00
21 18  6  1  4  0  0.0-3.875186666846e-04 5.115907697473e-12 0.000000000000e+00
    1.020000000000e+02-9.293750000000e+01 4.519116810783e-09-2.994823577417e+00
   -4.934147000313e-06 2.438023372088e-02 9.525567293167e-06 5.153705282211e+03
    4.464000000000e+05 4.302710294724e-07-2.804415119512e+00 1.043081283569e-07
    9.442823897918e-01 1.789375000000e+02-1.555171113839e+00-7.583173012451e-09
    2.771544017362e-10 1.000000000000e+00 2.003000000000e+03 0.000000000000e+00
    2.400000000000e+00 0.000000000000e+00-1.024454832077e-08 1.020000000000e+02
    4.392060000000e+05 4.000000000000e+00
32 18  6  1  4  0  0.0-5.013085901737e-04 5.798028723802e-12 0.000000000000e+00
    8.100000000000e+01-1.365625000000e+01 4.923419365893e-09 1.693963567742e+00
   -6.724148988724e-07 2.153412206098e-03 6.420537829399e-06 5.153663890839e+03
    4.464000000000e+05-5.215406417847e-08-6.682391942961e-01 6.332993507385e-08
    9.570128828565e-01 2.562187500000e+02-2.554961804529e+00-8.132481607645e-09
   -4.625192657839e-10 1.000000000000e+00 2.003000000000e+03 0.000000000000e+00
    2.400000000000e+00 0.000000000000e+00 4.656612873077e-10 8.100000000000e+01
    4.392060000000e+05 4.000000000000e+00
26 18  6  1  4  0  0.0-1.304177567363e-04 1.250555214938e-11 0.000000000000e+00
    8.500000000000e+01 9.525000000000e+01 4.563761527558e-09 2.808157893014e+00
    4.973262548447e-06 2.794563188218e-03 3.647059202194e-06 5.153667650223e+03
    4.464000000000e+05-2.048909664154e-08 1.414827522045e+00-1.862645149231e-09
    9.555523127608e-01 3.066875000000e+02 1.277272516899e-01-8.255343868208e-09
    2.235807416067e-10 1.000000000000e+00 2.003000000000e+03 0.000000000000e+00
    2.400000000000e+00 0.000000000000e+00 7.450580596924e-09 8.500000000000e+01
    4.392060000000e+05 4.000000000000e+00
16 18  6  1  4  0  0.0 2.296036109328e-05-1.250555214938e-12 0.000000000000e+00
    5.600000000000e+01 8.078125000000e+01 3.923377710144e-09 1.920106503206e+00
    4.120171070099e-06 1.002886856440e-02 3.421679139137e-06 5.153642314911e+03
    4.464000000000e+05-1.788139343262e-07 1.515642624073e+00 4.656612873077e-08
    9.867565353304e-01 3.295625000000e+02 5.182493152556e-01-7.996047353182e-09
    1.550064566411e-10 1.000000000000e+00 2.003000000000e+03 0.000000000000e+00
    2.400000000000e+00 0.000000000000e+00-1.071020960808e-08 5.600000000000e+01
    4.392060000000e+05 4.000000000000e+00
18 18  6  1  4  0  0.0 1.615006476641e-05 4.661160346586e-12 0.000000000000e+00
    9.900000000000e+01-7.359375000000e+01 4.614477925813e-09-1.463227999925e+00
   -3.559514880180e-06 1.456588262226e-02 9.858980774879e-06 5.153655496597e+03
    4.464000000000e+05 1.993030309677e-07-2.797279784857e+00 3.241002559662e-07
    9.500364825471e-01 1.816562500000e+02 1.307600586127e+00-7.916044020722e-09
    2.146517982518e-10 1.000000000000e+00 2.003000000000e+03 0.000000000000e+00
    3.400000000000e+00 0.000000000000e+00-6.984919309616e-09 9.900000000000e+01
    4.392060000000e+05 4.000000000000e+00
12 18  6  1  4  0  0.0 3.302111290395e-04-2.387423592154e-12 0.000000000000e+00
    9.200000000000e+01 9.390625000000e+01 3.860875106660e-09-2.469752034400e+00
    4.887580871582e-06 7.207039278001e-03 3.263354301453e-06 5.153586563110e+03
    4.464000000000e+05 9.313225746155e-09 1.496731430860e+00-8.195638656616e-08
    9.863403088044e-01 3.303437500000e+02 9.873442933901e-01-7.853898574972e-09
    3.021554431299e-10 1.000000000000e+00 2.003000000000e+03 0.000000000000e+00
    2.400000000000e+00 0.000000000000e+00-1.257285475731e-08 9.200000000000e+01
    4.392060000000e+05 4.000000000000e+00
10 18  6  1  4  0  0.0 1.869937404990e-04 1.250555214938e-12 0.000000000000e+00
    9.900000000000e+01 1.628125000000e+01 4.777699010341e-09 2.985619388403e+00
    8.828938007355e-07 3.556303447112e-03 7.290393114090e-06 5.153661447525e+03
    4.464000000000e+05-4.656612873077e-08-1.710833134427e+00-6.705522537231e-08
    9.607122647449e-01 2.410000000000e+02-2.743427022999e+00-7.918544124861e-09
    4.364467511876e-10 1.000000000000e+00 2.003000000000e+03 0.000000000000e+00
    2.400000000000e+00 0.000000000000e+00 1.862645149231e-09 9.900000000000e+01
    4.392060000000e+05 4.000000000000e+00
31 18  6  1  4  0  0.0 1.177107915282e-04-2.614797267597e-12 0.000000000000e+00
    6.100000000000e+01 6.590625000000e+01 4.146601294017e-09-2.060671310157e+00
    3.388151526451e-06 8.761660428718e-03 1.043081283569e-05 5.153673473358e+03
    4.464000000000e+05-8.940696716309e-08 4.165350467223e-01-6.519258022308e-08
    9.636200879931e-01 1.816250000000e+02-1.291435670508e-01-7.739250942295e-09
   -2.246522148093e-10 1.000000000000e+00 2.003000000000e+03 0.000000000000e+00
    2.400000000000e+00 0.000000000000e+00-1.350417733192e-08 6.100000000000e+01
    4.392060000000e+05 4.000000000000e+00
30 18  6  1  4  0  0.0 6.771413609385e-05-4.320099833421e-12 0.000000000000e+00
    1.440000000000e+02 7.368750000000e+01 4.497687346731e-09-1.789748430343e+00
    3.710389137268e-06 3.434814396314e-03 1.024827361107e-05 5.153737882614e+03
    4.464000000000e+05-2.980232238770e-08 4.375262578220e-01-3.539025783539e-08
    9.445614150829e-01 1.740312500000e+02-3.073625896559e+00-7.872113619416e-09
   -2.560820954186e-10 1.000000000000e+00 2.003000000000e+03 0.000000000000e+00
    3.400000000000e+00 0.000000000000e+00 3.725290298462e-09 1.440000000000e+02
    4.392060000000e+05 4.000000000000e+00
29 18  6  1  4  0  0.0 4.402790218592e-04-6.593836587854e-12 0.000000000000e+00
    1.110000000000e+02-8.906250000000e+01 3.997309361123e-09 1.941820752789e+00
   -4.556030035019e-06 7.944806711748e-04 3.032386302948e-06 5.153689630508e+03
    4.464000000000e+05 1.862645149231e-08 2.541883736758e+00 3.539025783539e-08
    9.841054790747e-01 3.327500000000e+02 1.183376751135e+00-8.036763334880e-09
   -9.536111503035e-11 1.000000000000e+00 2.003000000000e+03 0.000000000000e+00
    2.400000000000e+00 0.000000000000e+00-1.024454832077e-08 1.110000000000e+02
    4.392060000000e+05 4.000000000000e+00
